ONEWEB-0714             
1 54681U 22166AR  26122.07416182  .00000030  00000+0  41961-4 0  9990
2 54681  87.9225 253.1581 0002111  96.8142 263.3232 13.21824362165442
ONEWEB-0532             
1 55140U 23004A   26122.16790199  .00000074  00000+0  15851-3 0  9992
2 55140  87.9179  15.0106 0001591  91.3320 268.7994 13.17649169161522
ONEWEB-0533             
1 55141U 23004B   26122.18145959  .00000509  00000+0  13802-2 0  9999
2 55141  87.8992 359.8134 0001941  85.6993 274.4357 13.12443351162029
ONEWEB-0541             
1 55142U 23004C   26122.17534480  .00000172  00000+0  44927-3 0  9999
2 55142  87.8933  30.2033 0001673  77.6284 282.5031 13.11420399159918
ONEWEB-0543             
1 55143U 23004D   26122.18271417  .00000369  00000+0  90404-3 0  9998
2 55143  87.9188 344.6257 0001982  78.9262 281.2092 13.18683729163637
ONEWEB-0544             
1 55144U 23004E   26122.17596478  .00000060  00000+0  11910-3 0  9998
2 55144  87.9187 344.6266 0001664  76.9195 283.2122 13.18703205163635
ONEWEB-0560             
1 55145U 23004F   26122.09334596 -.00002003  00000+0 -51121-2 0  9999
2 55145  87.9182 344.6327 0001967  74.1713 285.9636 13.18711796163634
ONEWEB-0565             
1 55146U 23004G   26122.08658818 -.00000086  00000+0 -24990-3 0  9999
2 55146  87.9178 344.6656 0001312  78.2218 281.9061 13.18744607163628
ONEWEB-0567             
1 55147U 23004H   26122.07985455 -.00001836  00000+0 -46852-2 0  9993
2 55147  87.9192 344.6466 0001840  91.0402 269.0941 13.18752944163625
ONEWEB-0569             
1 55148U 23004J   26122.07303404 -.00000108  00000+0 -33149-3 0  9999
2 55148  87.8963 329.4038 0001691  55.7411 304.3878 13.13471181164122
ONEWEB-0570             
1 55149U 23004K   26122.14728816  .00004400  00000+0  11137-1 0  9994
2 55149  87.9194 344.6319 0001745  98.3844 261.7486 13.18593318163621
ONEWEB-0571             
1 55150U 23004L   26122.14054522  .00003935  00000+0  99553-2 0  9993
2 55150  87.9189 344.6326 0001199  51.7607 308.3633 13.18606113163639
ONEWEB-0572             
1 55151U 23004M   26122.12234046  .00000082  00000+0  17929-3 0  9991
2 55151  87.9177  15.0208 0001620  77.3714 282.7599 13.17648523161417
ONEWEB-0573             
1 55152U 23004N   26122.13380183  .00003071  00000+0  77619-2 0  9999
2 55152  87.9182 344.6347 0001021  77.7701 282.3545 13.18620213163623
ONEWEB-0588             
1 55153U 23004P   26122.12704670  .00003446  00000+0  87094-2 0  9994
2 55153  87.9186 344.6369 0001370  98.4041 261.7246 13.18644109163625
ONEWEB-0598             
1 55154U 23004Q   26122.15330734 -.00000452  00000+0 -13107-2 0  9994
2 55154  87.8920  30.2229 0001602  54.0278 306.0998 13.11415480159861
