[{"OBJECT_NAME":"ONEWEB-0714","OBJECT_ID":"2022-166AR","EPOCH":"2026-05-02T01:46:47.581248","MEAN_MOTION":13.21824362,"ECCENTRICITY":0.0002111,"INCLINATION":87.9225,"RA_OF_ASC_NODE":253.1581,"ARG_OF_PERICENTER":96.8142,"MEAN_ANOMALY":263.3232,"EPHEMERIS_TYPE":0,"CLASSIFICATION_TYPE":"U","NORAD_CAT_ID":54681,"ELEMENT_SET_NO":999,"REV_AT_EPOCH":16544,"BSTAR":4.1961e-05,"MEAN_MOTION_DOT":3e-07,"MEAN_MOTION_DDOT":0.0},{"OBJECT_NAME":"ONEWEB-0532","OBJECT_ID":"2023-004A","EPOCH":"2026-05-02T04:01:46.731936","MEAN_MOTION":13.17649169,"ECCENTRICITY":0.0001591,"INCLINATION":87.9179,"RA_OF_ASC_NODE":15.0106,"ARG_OF_PERICENTER":91.332,"MEAN_ANOMALY":268.7994,"EPHEMERIS_TYPE":0,"CLASSIFICATION_TYPE":"U","NORAD_CAT_ID":55140,"ELEMENT_SET_NO":999,"REV_AT_EPOCH":16152,"BSTAR":0.00015851000000000003,"MEAN_MOTION_DOT":7.4e-07,"MEAN_MOTION_DDOT":0.0},{"OBJECT_NAME":"ONEWEB-0533","OBJECT_ID":"2023-004B","EPOCH":"2026-05-02T04:21:18.108576","MEAN_MOTION":13.12443351,"ECCENTRICITY":0.0001941,"INCLINATION":87.8992,"RA_OF_ASC_NODE":359.8134,"ARG_OF_PERICENTER":85.6993,"MEAN_ANOMALY":274.4357,"EPHEMERIS_TYPE":0,"CLASSIFICATION_TYPE":"U","NORAD_CAT_ID":55141,"ELEMENT_SET_NO":999,"REV_AT_EPOCH":16202,"BSTAR":0.0013802,"MEAN_MOTION_DOT":5.09e-06,"MEAN_MOTION_DDOT":0.0},{"OBJECT_NAME":"ONEWEB-0541","OBJECT_ID":"2023-004C","EPOCH":"2026-05-02T04:12:29.790720","MEAN_MOTION":13.11420399,"ECCENTRICITY":0.0001673,"INCLINATION":87.8933,"RA_OF_ASC_NODE":30.2033,"ARG_OF_PERICENTER":77.6284,"MEAN_ANOMALY":282.5031,"EPHEMERIS_TYPE":0,"CLASSIFICATION_TYPE":"U","NORAD_CAT_ID":55142,"ELEMENT_SET_NO":999,"REV_AT_EPOCH":15991,"BSTAR":0.00044927,"MEAN_MOTION_DOT":1.72e-06,"MEAN_MOTION_DDOT":0.0},{"OBJECT_NAME":"ONEWEB-0543","OBJECT_ID":"2023-004D","EPOCH":"2026-05-02T04:23:06.504288","MEAN_MOTION":13.18683729,"ECCENTRICITY":0.0001982,"INCLINATION":87.9188,"RA_OF_ASC_NODE":344.6257,"ARG_OF_PERICENTER":78.9262,"MEAN_ANOMALY":281.2092,"EPHEMERIS_TYPE":0,"CLASSIFICATION_TYPE":"U","NORAD_CAT_ID":55143,"ELEMENT_SET_NO":999,"REV_AT_EPOCH":16363,"BSTAR":0.0009040399999999999,"MEAN_MOTION_DOT":3.69e-06,"MEAN_MOTION_DDOT":0.0},{"OBJECT_NAME":"ONEWEB-0544","OBJECT_ID":"2023-004E","EPOCH":"2026-05-02T04:13:23.356992","MEAN_MOTION":13.18703205,"ECCENTRICITY":0.0001664,"INCLINATION":87.9187,"RA_OF_ASC_NODE":344.6266,"ARG_OF_PERICENTER":76.9195,"MEAN_ANOMALY":283.2122,"EPHEMERIS_TYPE":0,"CLASSIFICATION_TYPE":"U","NORAD_CAT_ID":55144,"ELEMENT_SET_NO":999,"REV_AT_EPOCH":16363,"BSTAR":0.0001191,"MEAN_MOTION_DOT":6e-07,"MEAN_MOTION_DDOT":0.0},{"OBJECT_NAME":"ONEWEB-0560","OBJECT_ID":"2023-004F","EPOCH":"2026-05-02T02:14:25.090944","MEAN_MOTION":13.18711796,"ECCENTRICITY":0.0001967,"INCLINATION":87.9182,"RA_OF_ASC_NODE":344.6327,"ARG_OF_PERICENTER":74.1713,"MEAN_ANOMALY":285.9636,"EPHEMERIS_TYPE":0,"CLASSIFICATION_TYPE":"U","NORAD_CAT_ID":55145,"ELEMENT_SET_NO":999,"REV_AT_EPOCH":16363,"BSTAR":-0.0051121000000000005,"MEAN_MOTION_DOT":-2.003e-05,"MEAN_MOTION_DDOT":0.0},{"OBJECT_NAME":"ONEWEB-0565","OBJECT_ID":"2023-004G","EPOCH":"2026-05-02T02:04:41.218752","MEAN_MOTION":13.18744607,"ECCENTRICITY":0.0001312,"INCLINATION":87.9178,"RA_OF_ASC_NODE":344.6656,"ARG_OF_PERICENTER":78.2218,"MEAN_ANOMALY":281.9061,"EPHEMERIS_TYPE":0,"CLASSIFICATION_TYPE":"U","NORAD_CAT_ID":55146,"ELEMENT_SET_NO":999,"REV_AT_EPOCH":16362,"BSTAR":-0.0002499,"MEAN_MOTION_DOT":-8.6e-07,"MEAN_MOTION_DDOT":0.0},{"OBJECT_NAME":"ONEWEB-0567","OBJECT_ID":"2023-004H","EPOCH":"2026-05-02T01:54:59.433120","MEAN_MOTION":13.18752944,"ECCENTRICITY":0.000184,"INCLINATION":87.9192,"RA_OF_ASC_NODE":344.6466,"ARG_OF_PERICENTER":91.0402,"MEAN_ANOMALY":269.0941,"EPHEMERIS_TYPE":0,"CLASSIFICATION_TYPE":"U","NORAD_CAT_ID":55147,"ELEMENT_SET_NO":999,"REV_AT_EPOCH":16362,"BSTAR":-0.0046852,"MEAN_MOTION_DOT":-1.836e-05,"MEAN_MOTION_DDOT":0.0},{"OBJECT_NAME":"ONEWEB-0569","OBJECT_ID":"2023-004J","EPOCH":"2026-05-02T01:45:10.141056","MEAN_MOTION":13.13471181,"ECCENTRICITY":0.0001691,"INCLINATION":87.8963,"RA_OF_ASC_NODE":329.4038,"ARG_OF_PERICENTER":55.7411,"MEAN_ANOMALY":304.3878,"EPHEMERIS_TYPE":0,"CLASSIFICATION_TYPE":"U","NORAD_CAT_ID":55148,"ELEMENT_SET_NO":999,"REV_AT_EPOCH":16412,"BSTAR":-0.00033149000000000004,"MEAN_MOTION_DOT":-1.08e-06,"MEAN_MOTION_DDOT":0.0},{"OBJECT_NAME":"ONEWEB-0570","OBJECT_ID":"2023-004K","EPOCH":"2026-05-02T03:32:05.697024","MEAN_MOTION":13.18593318,"ECCENTRICITY":0.0001745,"INCLINATION":87.9194,"RA_OF_ASC_NODE":344.6319,"ARG_OF_PERICENTER":98.3844,"MEAN_ANOMALY":261.7486,"EPHEMERIS_TYPE":0,"CLASSIFICATION_TYPE":"U","NORAD_CAT_ID":55149,"ELEMENT_SET_NO":999,"REV_AT_EPOCH":16362,"BSTAR":0.011137000000000001,"MEAN_MOTION_DOT":4.4e-05,"MEAN_MOTION_DDOT":0.0},{"OBJECT_NAME":"ONEWEB-0571","OBJECT_ID":"2023-004L","EPOCH":"2026-05-02T03:22:23.107008","MEAN_MOTION":13.18606113,"ECCENTRICITY":0.0001199,"INCLINATION":87.9189,"RA_OF_ASC_NODE":344.6326,"ARG_OF_PERICENTER":51.7607,"MEAN_ANOMALY":308.3633,"EPHEMERIS_TYPE":0,"CLASSIFICATION_TYPE":"U","NORAD_CAT_ID":55150,"ELEMENT_SET_NO":999,"REV_AT_EPOCH":16363,"BSTAR":0.0099553,"MEAN_MOTION_DOT":3.935e-05,"MEAN_MOTION_DDOT":0.0},{"OBJECT_NAME":"ONEWEB-0572","OBJECT_ID":"2023-004M","EPOCH":"2026-05-02T02:56:10.215744","MEAN_MOTION":13.17648523,"ECCENTRICITY":0.000162,"INCLINATION":87.9177,"RA_OF_ASC_NODE":15.0208,"ARG_OF_PERICENTER":77.3714,"MEAN_ANOMALY":282.7599,"EPHEMERIS_TYPE":0,"CLASSIFICATION_TYPE":"U","NORAD_CAT_ID":55151,"ELEMENT_SET_NO":999,"REV_AT_EPOCH":16141,"BSTAR":0.00017929,"MEAN_MOTION_DOT":8.2e-07,"MEAN_MOTION_DDOT":0.0},{"OBJECT_NAME":"ONEWEB-0573","OBJECT_ID":"2023-004N","EPOCH":"2026-05-02T03:12:40.478112","MEAN_MOTION":13.18620213,"ECCENTRICITY":0.0001021,"INCLINATION":87.9182,"RA_OF_ASC_NODE":344.6347,"ARG_OF_PERICENTER":77.7701,"MEAN_ANOMALY":282.3545,"EPHEMERIS_TYPE":0,"CLASSIFICATION_TYPE":"U","NORAD_CAT_ID":55152,"ELEMENT_SET_NO":999,"REV_AT_EPOCH":16362,"BSTAR":0.0077619,"MEAN_MOTION_DOT":3.071e-05,"MEAN_MOTION_DDOT":0.0},{"OBJECT_NAME":"ONEWEB-0588","OBJECT_ID":"2023-004P","EPOCH":"2026-05-02T03:02:56.834880","MEAN_MOTION":13.18644109,"ECCENTRICITY":0.000137,"INCLINATION":87.9186,"RA_OF_ASC_NODE":344.6369,"ARG_OF_PERICENTER":98.4041,"MEAN_ANOMALY":261.7246,"EPHEMERIS_TYPE":0,"CLASSIFICATION_TYPE":"U","NORAD_CAT_ID":55153,"ELEMENT_SET_NO":999,"REV_AT_EPOCH":16362,"BSTAR":0.0087094,"MEAN_MOTION_DOT":3.446e-05,"MEAN_MOTION_DDOT":0.0},{"OBJECT_NAME":"ONEWEB-0598","OBJECT_ID":"2023-004Q","EPOCH":"2026-05-02T03:40:45.754176","MEAN_MOTION":13.1141548,"ECCENTRICITY":0.0001602,"INCLINATION":87.892,"RA_OF_ASC_NODE":30.2229,"ARG_OF_PERICENTER":54.0278,"MEAN_ANOMALY":306.0998,"EPHEMERIS_TYPE":0,"CLASSIFICATION_TYPE":"U","NORAD_CAT_ID":55154,"ELEMENT_SET_NO":999,"REV_AT_EPOCH":15986,"BSTAR":-0.0013107,"MEAN_MOTION_DOT":-4.52e-06,"MEAN_MOTION_DDOT":0.0}]